ONEWEB-0517             
1 54135U 22138Y   24085.08176923  .00000124  00000+0  27633-3 0  9999
2 54135  87.9101 107.0178 0001927  81.6217 278.5134 13.19724304 70320
ONEWEB-0518             
1 54136U 22138Z   24085.55563940  .00000097  00000+0  21068-3 0  9996
2 54136  87.9108 106.9309 0002069  88.5623 271.5747 13.19723721 70388
ONEWEB-0519             
1 54137U 22138AA  24084.82275173  .00000014  00000+0  35303-5 0  9992
2 54137  87.9098 107.0659 0002039  78.3845 281.7517 13.19725176 69424
ONEWEB-0520             
1 54138U 22138AB  24084.78167368  .00000124  00000+0  27835-3 0  9995
2 54138  87.9098 107.0767 0001588  76.9466 283.1844 13.19726285 69405
ONEWEB-0521             
1 54139U 22138AC  24084.96645667  .00000085  00000+0  17876-3 0  9999
2 54139  87.9097 107.0338 0002264  91.6448 268.4944 13.19727505 69374
ONEWEB-0522             
1 54140U 22138AD  24085.09756000 -.00000138  00000+0 -37604-3 0  9992
2 54140  87.9097 107.0095 0001805  91.3524 268.7815 13.19726297 70300
ONEWEB-0523             
1 54141U 22138AE  24085.25103108 -.00000026  00000+0 -95812-4 0  9998
2 54141  87.9137  76.4077 0002491 106.9492 253.1914 13.20773574 72733
ONEWEB-0524             
1 54142U 22138AF  24085.23997513  .00000040  00000+0  65421-4 0  9995
2 54142  87.9140  76.4139 0001538 125.5933 234.5344 13.20768841 72736
